{
"type": "FeatureCollection",
"name": "named-points",
"features": [
{ "type": "Feature", "properties": { "name": "Three Saints Bay", "maxKm": 10 }, "geometry": { "type": "Point", "coordinates": [ -153.515744, 57.173713 ] } },
{ "type": "Feature", "properties": { "name": "Ugak Bay", "maxKm": 10 }, "geometry": { "type": "Point", "coordinates": [ -152.609902, 57.428139 ] } },
{ "type": "Feature", "properties": { "name": "Frazer Lake", "maxKm": 8 }, "geometry": { "type": "Point", "coordinates": [ -154.192559, 57.304339 ] } },
{ "type": "Feature", "properties": { "name": "Frazer Lake", "maxKm": 8 }, "geometry": { "type": "Point", "coordinates": [ -154.086917, 57.205683 ] } },
{ "type": "Feature", "properties": { "name": "Karluk Lake", "maxKm": 8 }, "geometry": { "type": "Point", "coordinates": [ -154.034262, 57.326472 ] } },
{ "type": "Feature", "properties": { "name": "Karluk Lake", "maxKm": 8 }, "geometry": { "type": "Point", "coordinates": [ -154.008077, 57.2816 ] } },
{ "type": "Feature", "properties": { "name": "Karluk Lake", "maxKm": 8 }, "geometry": { "type": "Point", "coordinates": [ -154.066767, 57.403408 ] } },
{ "type": "Feature", "properties": { "name": "Karluk Lake", "maxKm": 8 }, "geometry": { "type": "Point", "coordinates": [ -154.103787, 57.436956 ] } },
{ "type": "Feature", "properties": { "name": "South Olga Lakes", "maxKm": 8 }, "geometry": { "type": "Point", "coordinates": [ -154.306897, 57.0521 ] } },
{ "type": "Feature", "properties": { "name": "Abercrombie Lake", "maxKm": 8 }, "geometry": { "type": "Point", "coordinates": [ -152.354618, 57.833165 ] } },
{ "type": "Feature", "properties": { "name": "Afognak Village", "maxKm": 8 }, "geometry": { "type": "Point", "coordinates": [ -152.76941, 58.007217 ] } },
{ "type": "Feature", "properties": { "name": "Afognak Bay", "maxKm": 10 }, "geometry": { "type": "Point", "coordinates": [ -152.752778, 58.045833 ] } },
{ "type": "Feature", "properties": { "name": "Afognak Lake", "maxKm": 8 }, "geometry": { "type": "Point", "coordinates": [ -152.922033, 58.110857 ] } },
{ "type": "Feature", "properties": { "name": "Afognak Strait", "maxKm": 10 }, "geometry": { "type": "Point", "coordinates": [ -152.809444, 57.983056 ] } },
{ "type": "Feature", "properties": { "name": "Aiaktalik", "maxKm": 8 }, "geometry": { "type": "Point", "coordinates": [ -154.063429, 56.702687 ] } },
{ "type": "Feature", "properties": { "name": "Akalura Lake", "maxKm": 8 }, "geometry": { "type": "Point", "coordinates": [ -154.223671, 57.187918 ] } },
{ "type": "Feature", "properties": { "name": "Akhiok", "maxKm": 8 }, "geometry": { "type": "Point", "coordinates": [ -154.170278, 56.945556 ] } },
{ "type": "Feature", "properties": { "name": "Akiak Indian Reservation (historical)", "maxKm": 8 }, "geometry": { "type": "Point", "coordinates": [ -161.222229, 60.911928 ] } },
{ "type": "Feature", "properties": { "name": "Aleneva", "maxKm": 8 }, "geometry": { "type": "Point", "coordinates": [ -152.882094, 58.006324 ] } },
{ "type": "Feature", "properties": { "name": "Alinchak Bay", "maxKm": 10 }, "geometry": { "type": "Point", "coordinates": [ -155.299586, 57.777232 ] } },
{ "type": "Feature", "properties": { "name": "Alitak Bay", "maxKm": 10 }, "geometry": { "type": "Point", "coordinates": [ -154.121667, 56.885278 ] } },
{ "type": "Feature", "properties": { "name": "Alitak Lagoon", "maxKm": 10 }, "geometry": { "type": "Point", "coordinates": [ -154.292778, 56.889722 ] } },
{ "type": "Feature", "properties": { "name": "Alpine Cove", "maxKm": 8 }, "geometry": { "type": "Point", "coordinates": [ -153.758611, 57.138333 ] } },
{ "type": "Feature", "properties": { "name": "Amalik Bay", "maxKm": 10 }, "geometry": { "type": "Point", "coordinates": [ -154.539307, 58.092195 ] } },
{ "type": "Feature", "properties": { "name": "Amatuli Cove", "maxKm": 10 }, "geometry": { "type": "Point", "coordinates": [ -152.0075, 58.920556 ] } },
{ "type": "Feature", "properties": { "name": "Amee Bay", "maxKm": 10 }, "geometry": { "type": "Point", "coordinates": [ -153.214722, 57.191667 ] } },
{ "type": "Feature", "properties": { "name": "Amook Bay", "maxKm": 10 }, "geometry": { "type": "Point", "coordinates": [ -153.825221, 57.47248 ] } },
{ "type": "Feature", "properties": { "name": "Anchor Cove", "maxKm": 10 }, "geometry": { "type": "Point", "coordinates": [ -154.135833, 57.1175 ] } },
{ "type": "Feature", "properties": { "name": "Andreon Bay", "maxKm": 10 }, "geometry": { "type": "Point", "coordinates": [ -152.4125, 58.511944 ] } },
{ "type": "Feature", "properties": { "name": "Anton Larsen Bay", "maxKm": 10 }, "geometry": { "type": "Point", "coordinates": [ -152.6275, 57.868056 ] } },
{ "type": "Feature", "properties": { "name": "Ayakulik", "maxKm": 8 }, "geometry": { "type": "Point", "coordinates": [ -154.532726, 57.195482 ] } },
{ "type": "Feature", "properties": { "name": "Ayakulik Island", "maxKm": 8 }, "geometry": { "type": "Point", "coordinates": [ -154.585726, 57.216045 ] } },
{ "type": "Feature", "properties": { "name": "Back Bay", "maxKm": 10 }, "geometry": { "type": "Point", "coordinates": [ -152.767141, 58.0814 ] } },
{ "type": "Feature", "properties": { "name": "Balika Cove", "maxKm": 10 }, "geometry": { "type": "Point", "coordinates": [ -152.428333, 57.936944 ] } },
{ "type": "Feature", "properties": { "name": "Barabara Cove", "maxKm": 8 }, "geometry": { "type": "Point", "coordinates": [ -152.901944, 57.821111 ] } },
{ "type": "Feature", "properties": { "name": "Bare Lake", "maxKm": 8 }, "geometry": { "type": "Point", "coordinates": [ -154.282063, 57.191539 ] } },
{ "type": "Feature", "properties": { "name": "Barling Bay", "maxKm": 10 }, "geometry": { "type": "Point", "coordinates": [ -153.360556, 57.191667 ] } },
{ "type": "Feature", "properties": { "name": "Barry Lagoon", "maxKm": 8 }, "geometry": { "type": "Point", "coordinates": [ -152.33596, 57.452396 ] } },
{ "type": "Feature", "properties": { "name": "Bear Bay", "maxKm": 10 }, "geometry": { "type": "Point", "coordinates": [ -155.225, 57.858333 ] } },
{ "type": "Feature", "properties": { "name": "Big Alinchak Bay", "maxKm": 10 }, "geometry": { "type": "Point", "coordinates": [ -155.3, 57.813889 ] } },
{ "type": "Feature", "properties": { "name": "Big Bay", "maxKm": 10 }, "geometry": { "type": "Point", "coordinates": [ -152.599722, 58.558611 ] } },
{ "type": "Feature", "properties": { "name": "Big Fort Channel", "maxKm": 10 }, "geometry": { "type": "Point", "coordinates": [ -152.445278, 58.486944 ] } },
{ "type": "Feature", "properties": { "name": "Big Kitoi Lake", "maxKm": 8 }, "geometry": { "type": "Point", "coordinates": [ -152.395028, 58.184001 ] } },
{ "type": "Feature", "properties": { "name": "Big Waterfall Bay", "maxKm": 10 }, "geometry": { "type": "Point", "coordinates": [ -152.515278, 58.415556 ] } },
{ "type": "Feature", "properties": { "name": "Bluefox Bay", "maxKm": 10 }, "geometry": { "type": "Point", "coordinates": [ -152.680833, 58.438333 ] } },
{ "type": "Feature", "properties": { "name": "Boulder Bay", "maxKm": 10 }, "geometry": { "type": "Point", "coordinates": [ -152.739722, 57.294444 ] } },
{ "type": "Feature", "properties": { "name": "Browns Lagoon", "maxKm": 10 }, "geometry": { "type": "Point", "coordinates": [ -153.756667, 57.486944 ] } },
{ "type": "Feature", "properties": { "name": "Bumble Bay", "maxKm": 10 }, "geometry": { "type": "Point", "coordinates": [ -154.686389, 57.276667 ] } },
{ "type": "Feature", "properties": { "name": "Buskin Lake", "maxKm": 8 }, "geometry": { "type": "Point", "coordinates": [ -152.550582, 57.77754 ] } },
{ "type": "Feature", "properties": { "name": "Camp Cove", "maxKm": 10 }, "geometry": { "type": "Point", "coordinates": [ -154.131944, 56.955556 ] } },
{ "type": "Feature", "properties": { "name": "Campbell Lagoon", "maxKm": 10 }, "geometry": { "type": "Point", "coordinates": [ -153.655556, 57.861667 ] } },
{ "type": "Feature", "properties": { "name": "Cannery Cove", "maxKm": 8 }, "geometry": { "type": "Point", "coordinates": [ -154.227464, 57.157045 ] } },
{ "type": "Feature", "properties": { "name": "Cape Current Narrows", "maxKm": 10 }, "geometry": { "type": "Point", "coordinates": [ -152.498611, 58.468056 ] } },
{ "type": "Feature", "properties": { "name": "Carry Inlet", "maxKm": 10 }, "geometry": { "type": "Point", "coordinates": [ -152.52936, 58.583362 ] } },
{ "type": "Feature", "properties": { "name": "Chasovina Cove", "maxKm": 8 }, "geometry": { "type": "Point", "coordinates": [ -152.3425, 57.900833 ] } },
{ "type": "Feature", "properties": { "name": "Chief Cove", "maxKm": 8 }, "geometry": { "type": "Point", "coordinates": [ -153.901944, 57.707222 ] } },
{ "type": "Feature", "properties": { "name": "Chiniak", "maxKm": 8 }, "geometry": { "type": "Point", "coordinates": [ -152.182938, 57.613913 ] } },
{ "type": "Feature", "properties": { "name": "Chiniak Bay", "maxKm": 10 }, "geometry": { "type": "Point", "coordinates": [ -152.355833, 57.713056 ] } },
{ "type": "Feature", "properties": { "name": "Chip Cove", "maxKm": 10 }, "geometry": { "type": "Point", "coordinates": [ -154.141944, 57.028056 ] } },
{ "type": "Feature", "properties": { "name": "City of Larsen Bay", "maxKm": 8 }, "geometry": { "type": "Point", "coordinates": [ -154.003291, 57.540764 ] } },
{ "type": "Feature", "properties": { "name": "City of Port Lions", "maxKm": 8 }, "geometry": { "type": "Point", "coordinates": [ -152.860596, 57.875148 ] } },
{ "type": "Feature", "properties": { "name": "Cook Bay", "maxKm": 10 }, "geometry": { "type": "Point", "coordinates": [ -152.258333, 57.777222 ] } },
{ "type": "Feature", "properties": { "name": "Cozy Cove", "maxKm": 8 }, "geometry": { "type": "Point", "coordinates": [ -153.180572, 57.197167 ] } },
{ "type": "Feature", "properties": { "name": "Dakavak Bay", "maxKm": 10 }, "geometry": { "type": "Point", "coordinates": [ -154.688694, 58.041575 ] } },
{ "type": "Feature", "properties": { "name": "Dakavak Lake", "maxKm": 8 }, "geometry": { "type": "Point", "coordinates": [ -154.692173, 58.107719 ] } },
{ "type": "Feature", "properties": { "name": "Dark Passage", "maxKm": 10 }, "geometry": { "type": "Point", "coordinates": [ -152.566944, 58.629167 ] } },
{ "type": "Feature", "properties": { "name": "Deadman Bay", "maxKm": 10 }, "geometry": { "type": "Point", "coordinates": [ -153.915549, 57.077731 ] } },
{ "type": "Feature", "properties": { "name": "Delfin Island", "maxKm": 8 }, "geometry": { "type": "Point", "coordinates": [ -152.483019, 58.348157 ] } },
{ "type": "Feature", "properties": { "name": "Delphin Bay", "maxKm": 10 }, "geometry": { "type": "Point", "coordinates": [ -152.47, 58.363056 ] } },
{ "type": "Feature", "properties": { "name": "Devil Inlet", "maxKm": 10 }, "geometry": { "type": "Point", "coordinates": [ -152.767778, 58.401389 ] } },
{ "type": "Feature", "properties": { "name": "Devils Bay", "maxKm": 10 }, "geometry": { "type": "Point", "coordinates": [ -152.783333, 58.416667 ] } },
{ "type": "Feature", "properties": { "name": "Devils Cove", "maxKm": 10 }, "geometry": { "type": "Point", "coordinates": [ -154.162778, 58.351111 ] } },
{ "type": "Feature", "properties": { "name": "Discoverer Bay", "maxKm": 10 }, "geometry": { "type": "Point", "coordinates": [ -152.381667, 58.341667 ] } },
{ "type": "Feature", "properties": { "name": "Dolgoi Lake", "maxKm": 8 }, "geometry": { "type": "Point", "coordinates": [ -152.279542, 57.763558 ] } },
{ "type": "Feature", "properties": { "name": "Driver Bay", "maxKm": 10 }, "geometry": { "type": "Point", "coordinates": [ -153.343611, 58.104722 ] } },
{ "type": "Feature", "properties": { "name": "Dry Bay", "maxKm": 10 }, "geometry": { "type": "Point", "coordinates": [ -155.750833, 57.630556 ] } },
{ "type": "Feature", "properties": { "name": "Dry Spruce Bay", "maxKm": 10 }, "geometry": { "type": "Point", "coordinates": [ -153.035556, 57.940556 ] } },
{ "type": "Feature", "properties": { "name": "Duck Bay", "maxKm": 10 }, "geometry": { "type": "Point", "coordinates": [ -152.455, 58.108333 ] } },
{ "type": "Feature", "properties": { "name": "Duck Village", "maxKm": 8 }, "geometry": { "type": "Point", "coordinates": [ -152.552761, 58.103334 ] } },
{ "type": "Feature", "properties": { "name": "Eagle Harbor", "maxKm": 8 }, "geometry": { "type": "Point", "coordinates": [ -152.721111, 57.426111 ] } },
{ "type": "Feature", "properties": { "name": "Eagle Harbor (historical)", "maxKm": 8 }, "geometry": { "type": "Point", "coordinates": [ -152.723889, 57.433889 ] } },
{ "type": "Feature", "properties": { "name": "Mush Bay", "maxKm": 10 }, "geometry": { "type": "Point", "coordinates": [ -153.471431, 57.710425 ] } },
{ "type": "Feature", "properties": { "name": "Esther Lagoon", "maxKm": 8 }, "geometry": { "type": "Point", "coordinates": [ -152.665278, 58.428056 ] } },
{ "type": "Feature", "properties": { "name": "Foul Bay", "maxKm": 10 }, "geometry": { "type": "Point", "coordinates": [ -152.856389, 58.356389 ] } },
{ "type": "Feature", "properties": { "name": "Fox Bay", "maxKm": 10 }, "geometry": { "type": "Point", "coordinates": [ -152.755833, 57.98 ] } },
{ "type": "Feature", "properties": { "name": "Frazer Lake", "maxKm": 8 }, "geometry": { "type": "Point", "coordinates": [ -154.139602, 57.25514 ] } },
{ "type": "Feature", "properties": { "name": "Geese Channel", "maxKm": 10 }, "geometry": { "type": "Point", "coordinates": [ -153.910278, 56.739167 ] } },
{ "type": "Feature", "properties": { "name": "Geographic Harbor", "maxKm": 10 }, "geometry": { "type": "Point", "coordinates": [ -154.585278, 58.112222 ] } },
{ "type": "Feature", "properties": { "name": "Grant Lagoon", "maxKm": 8 }, "geometry": { "type": "Point", "coordinates": [ -154.645561, 57.462287 ] } },
{ "type": "Feature", "properties": { "name": "Gretchen Lake", "maxKm": 8 }, "geometry": { "type": "Point", "coordinates": [ -152.246739, 58.298331 ] } },
{ "type": "Feature", "properties": { "name": "Gurney Bay", "maxKm": 10 }, "geometry": { "type": "Point", "coordinates": [ -154.755, 57.294444 ] } },
{ "type": "Feature", "properties": { "name": "Halibut Bay", "maxKm": 10 }, "geometry": { "type": "Point", "coordinates": [ -154.716944, 57.391389 ] } },
{ "type": "Feature", "properties": { "name": "Hallo Bay", "maxKm": 10 }, "geometry": { "type": "Point", "coordinates": [ -153.999605, 58.446809 ] } },
{ "type": "Feature", "properties": { "name": "Heitman Lake", "maxKm": 8 }, "geometry": { "type": "Point", "coordinates": [ -152.521796, 57.686103 ] } },
{ "type": "Feature", "properties": { "name": "Helen Bay", "maxKm": 10 }, "geometry": { "type": "Point", "coordinates": [ -152.234722, 57.778333 ] } },
{ "type": "Feature", "properties": { "name": "Hidden Basin", "maxKm": 8 }, "geometry": { "type": "Point", "coordinates": [ -152.940545, 57.510862 ] } },
{ "type": "Feature", "properties": { "name": "Hidden Harbor", "maxKm": 10 }, "geometry": { "type": "Point", "coordinates": [ -154.494444, 58.199167 ] } },
{ "type": "Feature", "properties": { "name": "Hidden Lake", "maxKm": 8 }, "geometry": { "type": "Point", "coordinates": [ -152.711593, 58.370603 ] } },
{ "type": "Feature", "properties": { "name": "Horse Marine Lagoon", "maxKm": 8 }, "geometry": { "type": "Point", "coordinates": [ -153.959167, 57.120278 ] } },
{ "type": "Feature", "properties": { "name": "Horse Marine Lake", "maxKm": 8 }, "geometry": { "type": "Point", "coordinates": [ -153.914615, 57.121587 ] } },
{ "type": "Feature", "properties": { "name": "Horseshoe Bay", "maxKm": 10 }, "geometry": { "type": "Point", "coordinates": [ -153.446944, 57.958889 ] } },
{ "type": "Feature", "properties": { "name": "Humpy Cove", "maxKm": 10 }, "geometry": { "type": "Point", "coordinates": [ -154.0125, 56.859444 ] } },
{ "type": "Feature", "properties": { "name": "Icon Bay", "maxKm": 10 }, "geometry": { "type": "Point", "coordinates": [ -152.341667, 57.897222 ] } },
{ "type": "Feature", "properties": { "name": "Cape Ikolik", "maxKm": 8 }, "geometry": { "type": "Point", "coordinates": [ -154.783333, 57.2875 ] } },
{ "type": "Feature", "properties": { "name": "Imuya Bay", "maxKm": 10 }, "geometry": { "type": "Point", "coordinates": [ -156.348611, 57.227222 ] } },
{ "type": "Feature", "properties": { "name": "Ivor Cove", "maxKm": 5 }, "geometry": { "type": "Point", "coordinates": [ -153.912222, 57.055 ] } },
{ "type": "Feature", "properties": { "name": "Marmot Island", "maxKm": 10 }, "geometry": { "type": "Point", "coordinates": [ -152.253889, 58.191944 ] } },
{ "type": "Feature", "properties": { "name": "Japanese Bay", "maxKm": 10 }, "geometry": { "type": "Point", "coordinates": [ -153.686944, 56.936389 ] } },
{ "type": "Feature", "properties": { "name": "Jute Bay", "maxKm": 10 }, "geometry": { "type": "Point", "coordinates": [ -155.85, 57.542222 ] } },
{ "type": "Feature", "properties": { "name": "Kaflia Bay", "maxKm": 10 }, "geometry": { "type": "Point", "coordinates": [ -154.160852, 58.251003 ] } },
{ "type": "Feature", "properties": { "name": "Kaguyak", "maxKm": 8 }, "geometry": { "type": "Point", "coordinates": [ -153.795516, 56.868931 ] } },
{ "type": "Feature", "properties": { "name": "Kaguyak Bay", "maxKm": 10 }, "geometry": { "type": "Point", "coordinates": [ -153.721111, 56.885556 ] } },
{ "type": "Feature", "properties": { "name": "Kaiugnak Bay", "maxKm": 10 }, "geometry": { "type": "Point", "coordinates": [ -153.589722, 57.071111 ] } },
{ "type": "Feature", "properties": { "name": "Kalsin Bay", "maxKm": 10 }, "geometry": { "type": "Point", "coordinates": [ -152.42304, 57.615838 ] } },
{ "type": "Feature", "properties": { "name": "Kanatak Lagoon", "maxKm": 10 }, "geometry": { "type": "Point", "coordinates": [ -156.061389, 57.522222 ] } },
{ "type": "Feature", "properties": { "name": "Kanatak Lake", "maxKm": 8 }, "geometry": { "type": "Point", "coordinates": [ -156.086912, 57.562111 ] } },
{ "type": "Feature", "properties": { "name": "Karluk", "maxKm": 8 }, "geometry": { "type": "Point", "coordinates": [ -154.455556, 57.571944 ] } },
{ "type": "Feature", "properties": { "name": "Karluk Lagoon", "maxKm": 8 }, "geometry": { "type": "Point", "coordinates": [ -154.422335, 57.56544 ] } },
{ "type": "Feature", "properties": { "name": "Karluk Lake", "maxKm": 8 }, "geometry": { "type": "Point", "coordinates": [ -154.050017, 57.366385 ] } },
{ "type": "Feature", "properties": { "name": "Kashvik Bay", "maxKm": 10 }, "geometry": { "type": "Point", "coordinates": [ -155.076985, 57.933211 ] } },
{ "type": "Feature", "properties": { "name": "Katmai Bay", "maxKm": 10 }, "geometry": { "type": "Point", "coordinates": [ -154.904279, 58.005092 ] } },
{ "type": "Feature", "properties": { "name": "Katmai Lakes", "maxKm": 8 }, "geometry": { "type": "Point", "coordinates": [ -154.830576, 58.224716 ] } },
{ "type": "Feature", "properties": { "name": "Kazakof Bay", "maxKm": 10 }, "geometry": { "type": "Point", "coordinates": [ -152.582222, 58.144167 ] } },
{ "type": "Feature", "properties": { "name": "Kempff Bay", "maxKm": 10 }, "geometry": { "type": "Point", "coordinates": [ -154.221667, 56.93 ] } },
{ "type": "Feature", "properties": { "name": "Kennedy Entrance", "maxKm": 10 }, "geometry": { "type": "Point", "coordinates": [ -152.0, 59.008333 ] } },
{ "type": "Feature", "properties": { "name": "Kiavak Bay", "maxKm": 10 }, "geometry": { "type": "Point", "coordinates": [ -153.583611, 57.021944 ] } },
{ "type": "Feature", "properties": { "name": "Kiliuda Bay", "maxKm": 10 }, "geometry": { "type": "Point", "coordinates": [ -152.987222, 57.315833 ] } },
{ "type": "Feature", "properties": { "name": "Kinak Bay", "maxKm": 10 }, "geometry": { "type": "Point", "coordinates": [ -154.433042, 58.131818 ] } },
{ "type": "Feature", "properties": { "name": "King Cove", "maxKm": 10 }, "geometry": { "type": "Point", "coordinates": [ -152.036111, 58.197778 ] } },
{ "type": "Feature", "properties": { "name": "Kitoi Bay", "maxKm": 10 }, "geometry": { "type": "Point", "coordinates": [ -152.349167, 58.193333 ] } },
{ "type": "Feature", "properties": { "name": "Kizhuyak Bay", "maxKm": 10 }, "geometry": { "type": "Point", "coordinates": [ -152.854567, 57.791104 ] } },
{ "type": "Feature", "properties": { "name": "Knee Bay", "maxKm": 10 }, "geometry": { "type": "Point", "coordinates": [ -152.420278, 57.933611 ] } },
{ "type": "Feature", "properties": { "name": "Knoll Bay", "maxKm": 10 }, "geometry": { "type": "Point", "coordinates": [ -153.589722, 56.950556 ] } },
{ "type": "Feature", "properties": { "name": "Kodiak", "maxKm": 8 }, "geometry": { "type": "Point", "coordinates": [ -152.406707, 57.790166 ] } },
{ "type": "Feature", "properties": { "name": "Uganik Lagoons", "maxKm": 8 }, "geometry": { "type": "Point", "coordinates": [ -153.260613089407087, 57.854176745480864 ] } },
{ "type": "Feature", "properties": { "name": "Kukak", "maxKm": 8 }, "geometry": { "type": "Point", "coordinates": [ -154.1875, 58.317778 ] } },
{ "type": "Feature", "properties": { "name": "Kukak Bay", "maxKm": 10 }, "geometry": { "type": "Point", "coordinates": [ -154.288748, 58.262801 ] } },
{ "type": "Feature", "properties": { "name": "Kuliak Bay", "maxKm": 10 }, "geometry": { "type": "Point", "coordinates": [ -154.233848, 58.171094 ] } },
{ "type": "Feature", "properties": { "name": "Kupreanof Strait", "maxKm": 10 }, "geometry": { "type": "Point", "coordinates": [ -153.174444, 57.997222 ] } },
{ "type": "Feature", "properties": { "name": "Lake A B Schwartz", "maxKm": 8 }, "geometry": { "type": "Point", "coordinates": [ -152.197472, 58.18745 ] } },
{ "type": "Feature", "properties": { "name": "Lake Leanne", "maxKm": 8 }, "geometry": { "type": "Point", "coordinates": [ -152.911319, 57.70425 ] } },
{ "type": "Feature", "properties": { "name": "Lake Miam", "maxKm": 8 }, "geometry": { "type": "Point", "coordinates": [ -152.581541, 57.496696 ] } },
{ "type": "Feature", "properties": { "name": "Larsen Bay", "maxKm": 10 }, "geometry": { "type": "Point", "coordinates": [ -153.981606, 57.536559 ] } },
{ "type": "Feature", "properties": { "name": "Laura Lake", "maxKm": 8 }, "geometry": { "type": "Point", "coordinates": [ -152.305771, 58.353388 ] } },
{ "type": "Feature", "properties": { "name": "Lazy Bay", "maxKm": 10 }, "geometry": { "type": "Point", "coordinates": [ -154.245, 56.893611 ] } },
{ "type": "Feature", "properties": { "name": "Leanne Lake", "maxKm": 8 }, "geometry": { "type": "Point", "coordinates": [ -152.91167, 57.703397 ] } },
{ "type": "Feature", "properties": { "name": "Little Kitoi Lake", "maxKm": 8 }, "geometry": { "type": "Point", "coordinates": [ -152.369631, 58.202148 ] } },
{ "type": "Feature", "properties": { "name": "Little River Lake", "maxKm": 8 }, "geometry": { "type": "Point", "coordinates": [ -153.6526, 57.772196 ] } },
{ "type": "Feature", "properties": { "name": "Little Waterfall Bay", "maxKm": 10 }, "geometry": { "type": "Point", "coordinates": [ -152.492222, 58.400278 ] } },
{ "type": "Feature", "properties": { "name": "Long Lake", "maxKm": 8 }, "geometry": { "type": "Point", "coordinates": [ -152.332676, 57.786602 ] } },
{ "type": "Feature", "properties": { "name": "Low Island Anchorage", "maxKm": 10 }, "geometry": { "type": "Point", "coordinates": [ -152.5725, 57.915278 ] } },
{ "type": "Feature", "properties": { "name": "Lower Malina Lake", "maxKm": 8 }, "geometry": { "type": "Point", "coordinates": [ -153.134878, 58.158205 ] } },
{ "type": "Feature", "properties": { "name": "Malina Bay", "maxKm": 10 }, "geometry": { "type": "Point", "coordinates": [ -153.036111, 58.212778 ] } },
{ "type": "Feature", "properties": { "name": "Malka Bay", "maxKm": 10 }, "geometry": { "type": "Point", "coordinates": [ -153.001389, 58.192222 ] } },
{ "type": "Feature", "properties": { "name": "Sitkinak Island", "maxKm": 10 }, "geometry": { "type": "Point", "coordinates": [ -154.207522, 56.553141 ] } },
{ "type": "Feature", "properties": { "name": "Marka Bay", "maxKm": 10 }, "geometry": { "type": "Point", "coordinates": [ -152.664779, 58.068985 ] } },
{ "type": "Feature", "properties": { "name": "Marmot Strait", "maxKm": 10 }, "geometry": { "type": "Point", "coordinates": [ -151.933333, 58.219444 ] } },
{ "type": "Feature", "properties": { "name": "Mary Anderson Bay", "maxKm": 10 }, "geometry": { "type": "Point", "coordinates": [ -152.44, 58.133056 ] } },
{ "type": "Feature", "properties": { "name": "McCord Bay", "maxKm": 10 }, "geometry": { "type": "Point", "coordinates": [ -153.207778, 57.140278 ] } },
{ "type": "Feature", "properties": { "name": "McDonald Lagoon", "maxKm": 10 }, "geometry": { "type": "Point", "coordinates": [ -153.080833, 57.145556 ] } },
{ "type": "Feature", "properties": { "name": "Middle Bay", "maxKm": 10 }, "geometry": { "type": "Point", "coordinates": [ -152.465474, 57.668372 ] } },
{ "type": "Feature", "properties": { "name": "Midway Bay", "maxKm": 10 }, "geometry": { "type": "Point", "coordinates": [ -153.243793, 57.219019 ] } },
{ "type": "Feature", "properties": { "name": "Missak Bay", "maxKm": 10 }, "geometry": { "type": "Point", "coordinates": [ -154.296194, 58.122437 ] } },
{ "type": "Feature", "properties": { "name": "Monashka Bay", "maxKm": 10 }, "geometry": { "type": "Point", "coordinates": [ -152.395278, 57.836667 ] } },
{ "type": "Feature", "properties": { "name": "Moser Bay", "maxKm": 10 }, "geometry": { "type": "Point", "coordinates": [ -154.152222, 56.990556 ] } },
{ "type": "Feature", "properties": { "name": "Mush Lake", "maxKm": 8 }, "geometry": { "type": "Point", "coordinates": [ -153.452739, 57.68203 ] } },
{ "type": "Feature", "properties": { "name": "Muskomee Bay", "maxKm": 10 }, "geometry": { "type": "Point", "coordinates": [ -153.060556, 58.109167 ] } },
{ "type": "Feature", "properties": { "name": "Narrow Strait", "maxKm": 10 }, "geometry": { "type": "Point", "coordinates": [ -152.441667, 57.883333 ] } },
{ "type": "Feature", "properties": { "name": "Natalia Bay", "maxKm": 10 }, "geometry": { "type": "Point", "coordinates": [ -153.361389, 57.061111 ] } },
{ "type": "Feature", "properties": { "name": "Neketa Bay", "maxKm": 10 }, "geometry": { "type": "Point", "coordinates": [ -152.630833, 58.526111 ] } },
{ "type": "Feature", "properties": { "name": "Neva Cove", "maxKm": 10 }, "geometry": { "type": "Point", "coordinates": [ -152.524444, 57.9075 ] } },
{ "type": "Feature", "properties": { "name": "Newman Bay", "maxKm": 10 }, "geometry": { "type": "Point", "coordinates": [ -153.361389, 57.105833 ] } },
{ "type": "Feature", "properties": { "name": "Noisy Passage", "maxKm": 10 }, "geometry": { "type": "Point", "coordinates": [ -153.541389, 57.930556 ] } },
{ "type": "Feature", "properties": { "name": "Northeast Arm Uganik Bay", "maxKm": 10 }, "geometry": { "type": "Point", "coordinates": [ -153.381381, 57.743644 ] } },
{ "type": "Feature", "properties": { "name": "Northeast Harbor", "maxKm": 10 }, "geometry": { "type": "Point", "coordinates": [ -154.353611, 57.6275 ] } },
{ "type": "Feature", "properties": { "name": "O'Malley Lake", "maxKm": 8 }, "geometry": { "type": "Point", "coordinates": [ -153.974147, 57.2593 ] } },
{ "type": "Feature", "properties": { "name": "Ocean Bay", "maxKm": 10 }, "geometry": { "type": "Point", "coordinates": [ -153.176944, 57.082778 ] } },
{ "type": "Feature", "properties": { "name": "Old Harbor", "maxKm": 8 }, "geometry": { "type": "Point", "coordinates": [ -153.303889, 57.202778 ] } },
{ "type": "Feature", "properties": { "name": "Old Kaguyak Bay", "maxKm": 10 }, "geometry": { "type": "Point", "coordinates": [ -153.768056, 56.841944 ] } },
{ "type": "Feature", "properties": { "name": "Olga Bay", "maxKm": 10 }, "geometry": { "type": "Point", "coordinates": [ -154.263611, 57.132778 ] } },
{ "type": "Feature", "properties": { "name": "Olga Narrows", "maxKm": 10 }, "geometry": { "type": "Point", "coordinates": [ -154.11, 57.055278 ] } },
{ "type": "Feature", "properties": { "name": "Onion Bay", "maxKm": 10 }, "geometry": { "type": "Point", "coordinates": [ -153.253889, 58.068056 ] } },
{ "type": "Feature", "properties": { "name": "Ouzinkie", "maxKm": 8 }, "geometry": { "type": "Point", "coordinates": [ -152.502009, 57.923481 ] } },
{ "type": "Feature", "properties": { "name": "Ouzinkie Narrows", "maxKm": 10 }, "geometry": { "type": "Point", "coordinates": [ -152.508611, 57.910278 ] } },
{ "type": "Feature", "properties": { "name": "Paramanof Bay", "maxKm": 10 }, "geometry": { "type": "Point", "coordinates": [ -152.936111, 58.298889 ] } },
{ "type": "Feature", "properties": { "name": "Partition Cove", "maxKm": 10 }, "geometry": { "type": "Point", "coordinates": [ -153.086944, 57.106389 ] } },
{ "type": "Feature", "properties": { "name": "Pasagshak Bay", "maxKm": 10 }, "geometry": { "type": "Point", "coordinates": [ -152.475, 57.447778 ] } },
{ "type": "Feature", "properties": { "name": "Pauls Bay", "maxKm": 10 }, "geometry": { "type": "Point", "coordinates": [ -152.348611, 58.395833 ] } },
{ "type": "Feature", "properties": { "name": "Pauls Lake", "maxKm": 8 }, "geometry": { "type": "Point", "coordinates": [ -152.332132, 58.379888 ] } },
{ "type": "Feature", "properties": { "name": "Pelenga Bay", "maxKm": 10 }, "geometry": { "type": "Point", "coordinates": [ -152.415833, 57.860278 ] } },
{ "type": "Feature", "properties": { "name": "Perenosa Bay", "maxKm": 10 }, "geometry": { "type": "Point", "coordinates": [ -152.412222, 58.420833 ] } },
{ "type": "Feature", "properties": { "name": "Perevalnie Passage", "maxKm": 10 }, "geometry": { "type": "Point", "coordinates": [ -152.358333, 58.631111 ] } },
{ "type": "Feature", "properties": { "name": "Pestriak (historical)", "maxKm": 8 }, "geometry": { "type": "Point", "coordinates": [ -152.383333, 57.891667 ] } },
{ "type": "Feature", "properties": { "name": "Phoenix Bay", "maxKm": 10 }, "geometry": { "type": "Point", "coordinates": [ -152.3225, 58.417222 ] } },
{ "type": "Feature", "properties": { "name": "Picnic Bay", "maxKm": 10 }, "geometry": { "type": "Point", "coordinates": [ -152.519556, 58.574654 ] } },
{ "type": "Feature", "properties": { "name": "Pinnacle Rock", "maxKm": 10 }, "geometry": { "type": "Point", "coordinates": [ -152.692222, 58.469444 ] } },
{ "type": "Feature", "properties": { "name": "Port Hobron", "maxKm": 10 }, "geometry": { "type": "Point", "coordinates": [ -153.164167, 57.168333 ] } },
{ "type": "Feature", "properties": { "name": "Port Lawrence", "maxKm": 10 }, "geometry": { "type": "Point", "coordinates": [ -152.605278, 58.492778 ] } },
{ "type": "Feature", "properties": { "name": "Port Lions", "maxKm": 8 }, "geometry": { "type": "Point", "coordinates": [ -152.883105, 57.867556 ] } },
{ "type": "Feature", "properties": { "name": "Port O'Brien", "maxKm": 8 }, "geometry": { "type": "Point", "coordinates": [ -153.31981, 57.730782 ] } },
{ "type": "Feature", "properties": { "name": "Port Wakefield", "maxKm": 8 }, "geometry": { "type": "Point", "coordinates": [ -153.055365, 58.048605 ] } },
{ "type": "Feature", "properties": { "name": "Port William", "maxKm": 8 }, "geometry": { "type": "Point", "coordinates": [ -152.582778, 58.492222 ] } },
{ "type": "Feature", "properties": { "name": "Portage Bay", "maxKm": 10 }, "geometry": { "type": "Point", "coordinates": [ -152.617222, 57.465833 ] } },
{ "type": "Feature", "properties": { "name": "Portage Lake", "maxKm": 8 }, "geometry": { "type": "Point", "coordinates": [ -152.432905, 58.27085 ] } },
{ "type": "Feature", "properties": { "name": "Puale Bay", "maxKm": 10 }, "geometry": { "type": "Point", "coordinates": [ -155.532059, 57.730128 ] } },
{ "type": "Feature", "properties": { "name": "Red Lake", "maxKm": 8 }, "geometry": { "type": "Point", "coordinates": [ -154.30034, 57.248711 ] } },
{ "type": "Feature", "properties": { "name": "Redfox Bay", "maxKm": 10 }, "geometry": { "type": "Point", "coordinates": [ -152.597222, 58.461667 ] } },
{ "type": "Feature", "properties": { "name": "Rodman Reach", "maxKm": 10 }, "geometry": { "type": "Point", "coordinates": [ -154.261111, 56.875278 ] } },
{ "type": "Feature", "properties": { "name": "Rolling Bay", "maxKm": 10 }, "geometry": { "type": "Point", "coordinates": [ -153.336111, 57.035833 ] } },
{ "type": "Feature", "properties": { "name": "Russian Harbor", "maxKm": 10 }, "geometry": { "type": "Point", "coordinates": [ -154.072778, 56.746111 ] } },
{ "type": "Feature", "properties": { "name": "Saltery Cove", "maxKm": 8 }, "geometry": { "type": "Point", "coordinates": [ -152.752222, 57.498333 ] } },
{ "type": "Feature", "properties": { "name": "Santa Flavia Bay", "maxKm": 10 }, "geometry": { "type": "Point", "coordinates": [ -152.859835, 57.289326 ] } },
{ "type": "Feature", "properties": { "name": "Saposa Bay", "maxKm": 10 }, "geometry": { "type": "Point", "coordinates": [ -152.240833, 58.254167 ] } },
{ "type": "Feature", "properties": { "name": "Seaborg Bay", "maxKm": 10 }, "geometry": { "type": "Point", "coordinates": [ -153.985556, 56.889167 ] } },
{ "type": "Feature", "properties": { "name": "Seaflower Cove", "maxKm": 10 }, "geometry": { "type": "Point", "coordinates": [ -154.248611, 56.885278 ] } },
{ "type": "Feature", "properties": { "name": "Seal Bay", "maxKm": 10 }, "geometry": { "type": "Point", "coordinates": [ -152.201667, 58.371667 ] } },
{ "type": "Feature", "properties": { "name": "Seldevoe Lagoon", "maxKm": 8 }, "geometry": { "type": "Point", "coordinates": [ -152.434017, 57.959704 ] } },
{ "type": "Feature", "properties": { "name": "Selezen Bay", "maxKm": 10 }, "geometry": { "type": "Point", "coordinates": [ -152.412778, 58.127222 ] } },
{ "type": "Feature", "properties": { "name": "Selief Bay", "maxKm": 10 }, "geometry": { "type": "Point", "coordinates": [ -153.036389, 58.032778 ] } },
{ "type": "Feature", "properties": { "name": "Settler Cove", "maxKm": 10 }, "geometry": { "type": "Point", "coordinates": [ -152.862778, 57.871389 ] } },
{ "type": "Feature", "properties": { "name": "Shakmanof Cove", "maxKm": 8 }, "geometry": { "type": "Point", "coordinates": [ -152.600833, 57.920833 ] } },
{ "type": "Feature", "properties": { "name": "Shangin Bay", "maxKm": 10 }, "geometry": { "type": "Point", "coordinates": [ -152.433889, 58.588056 ] } },
{ "type": "Feature", "properties": { "name": "Sharatin Bay", "maxKm": 10 }, "geometry": { "type": "Point", "coordinates": [ -152.739444, 57.843611 ] } },
{ "type": "Feature", "properties": { "name": "Shashgat Bay", "maxKm": 10 }, "geometry": { "type": "Point", "coordinates": [ -153.003841, 57.452037 ] } },
{ "type": "Feature", "properties": { "name": "Shearwater Bay", "maxKm": 10 }, "geometry": { "type": "Point", "coordinates": [ -152.90054, 57.338102 ] } },
{ "type": "Feature", "properties": { "name": "Shuyak Harbor", "maxKm": 10 }, "geometry": { "type": "Point", "coordinates": [ -152.628333, 58.502222 ] } },
{ "type": "Feature", "properties": { "name": "Shuyak Strait", "maxKm": 10 }, "geometry": { "type": "Point", "coordinates": [ -152.581389, 58.477778 ] } },
{ "type": "Feature", "properties": { "name": "Sitkalidak Lagoon", "maxKm": 10 }, "geometry": { "type": "Point", "coordinates": [ -153.295556, 57.097222 ] } },
{ "type": "Feature", "properties": { "name": "Sitkalidak Passage", "maxKm": 10 }, "geometry": { "type": "Point", "coordinates": [ -153.262778, 57.213056 ] } },
{ "type": "Feature", "properties": { "name": "Sitkalidak Strait", "maxKm": 10 }, "geometry": { "type": "Point", "coordinates": [ -153.357755, 57.159751 ] } },
{ "type": "Feature", "properties": { "name": "Sitkinak Lagoon", "maxKm": 10 }, "geometry": { "type": "Point", "coordinates": [ -154.061111, 56.560833 ] } },
{ "type": "Feature", "properties": { "name": "Sitkinak Strait", "maxKm": 10 }, "geometry": { "type": "Point", "coordinates": [ -154.044167, 56.656111 ] } },
{ "type": "Feature", "properties": { "name": "Skiff Passage", "maxKm": 10 }, "geometry": { "type": "Point", "coordinates": [ -152.556772, 58.587904 ] } },
{ "type": "Feature", "properties": { "name": "Snag Lake", "maxKm": 8 }, "geometry": { "type": "Point", "coordinates": [ -152.388889, 57.711111 ] } },
{ "type": "Feature", "properties": { "name": "South Arm Uganik Bay", "maxKm": 10 }, "geometry": { "type": "Point", "coordinates": [ -153.521498, 57.670799 ] } },
{ "type": "Feature", "properties": { "name": "South Olga Lakes", "maxKm": 8 }, "geometry": { "type": "Point", "coordinates": [ -154.205538, 57.062122 ] } },
{ "type": "Feature", "properties": { "name": "Southern Lake", "maxKm": 8 }, "geometry": { "type": "Point", "coordinates": [ -152.301408, 57.754365 ] } },
{ "type": "Feature", "properties": { "name": "Chirikof Island", "maxKm": 10 }, "geometry": { "type": "Point", "coordinates": [ -155.6467, 55.816453 ] } },
{ "type": "Feature", "properties": { "name": "Spectacle Lake", "maxKm": 8 }, "geometry": { "type": "Point", "coordinates": [ -154.956929, 58.421843 ] } },
{ "type": "Feature", "properties": { "name": "Spiridon Bay", "maxKm": 10 }, "geometry": { "type": "Point", "coordinates": [ -153.753611, 57.669167 ] } },
{ "type": "Feature", "properties": { "name": "Spiridon Lake", "maxKm": 8 }, "geometry": { "type": "Point", "coordinates": [ -153.68774, 57.719603 ] } },
{ "type": "Feature", "properties": { "name": "Stevenson Entrance", "maxKm": 10 }, "geometry": { "type": "Point", "coordinates": [ -152.446944, 58.74 ] } },
{ "type": "Feature", "properties": { "name": "Stockholm Bay", "maxKm": 10 }, "geometry": { "type": "Point", "coordinates": [ -154.119178, 57.124027 ] } },
{ "type": "Feature", "properties": { "name": "Sukhoi Bay", "maxKm": 10 }, "geometry": { "type": "Point", "coordinates": [ -154.349722, 56.953333 ] } },
{ "type": "Feature", "properties": { "name": "Sukhoi Lagoon", "maxKm": 10 }, "geometry": { "type": "Point", "coordinates": [ -154.318333, 56.958889 ] } },
{ "type": "Feature", "properties": { "name": "Sulua Bay", "maxKm": 10 }, "geometry": { "type": "Point", "coordinates": [ -153.855269, 57.000156 ] } },
{ "type": "Feature", "properties": { "name": "Sunny Cove", "maxKm": 8 }, "geometry": { "type": "Point", "coordinates": [ -152.428056, 57.903056 ] } },
{ "type": "Feature", "properties": { "name": "Swikshak Bay", "maxKm": 10 }, "geometry": { "type": "Point", "coordinates": [ -153.906944, 58.596944 ] } },
{ "type": "Feature", "properties": { "name": "Swikshak Lagoon", "maxKm": 10 }, "geometry": { "type": "Point", "coordinates": [ -153.7525, 58.616667 ] } },
{ "type": "Feature", "properties": { "name": "Tanginak Anchorage", "maxKm": 8 }, "geometry": { "type": "Point", "coordinates": [ -153.027792, 57.17283 ] } },
{ "type": "Feature", "properties": { "name": "Tanglefoot Bay", "maxKm": 10 }, "geometry": { "type": "Point", "coordinates": [ -154.488889, 57.575556 ] } },
{ "type": "Feature", "properties": { "name": "Telrod Cove", "maxKm": 8 }, "geometry": { "type": "Point", "coordinates": [ -153.631667, 57.651944 ] } },
{ "type": "Feature", "properties": { "name": "Terror Bay", "maxKm": 10 }, "geometry": { "type": "Point", "coordinates": [ -153.201758, 57.747696 ] } },
{ "type": "Feature", "properties": { "name": "Terror Lake", "maxKm": 8 }, "geometry": { "type": "Point", "coordinates": [ -153.033158, 57.622144 ] } },
{ "type": "Feature", "properties": { "name": "The Narrows", "maxKm": 10 }, "geometry": { "type": "Point", "coordinates": [ -152.880833, 57.998889 ] } },
{ "type": "Feature", "properties": { "name": "The Slough", "maxKm": 10 }, "geometry": { "type": "Point", "coordinates": [ -152.920278, 57.995 ] } },
{ "type": "Feature", "properties": { "name": "Three Saints Bay", "maxKm": 10 }, "geometry": { "type": "Point", "coordinates": [ -153.49255, 57.126008 ] } },
{ "type": "Feature", "properties": { "name": "Thumb Lake", "maxKm": 8 }, "geometry": { "type": "Point", "coordinates": [ -153.983275, 57.352352 ] } },
{ "type": "Feature", "properties": { "name": "Tonki Bay", "maxKm": 10 }, "geometry": { "type": "Point", "coordinates": [ -152.084444, 58.324444 ] } },
{ "type": "Feature", "properties": { "name": "Trip Cove", "maxKm": 8 }, "geometry": { "type": "Point", "coordinates": [ -152.460556, 57.958333 ] } },
{ "type": "Feature", "properties": { "name": "Tugidak Passage", "maxKm": 10 }, "geometry": { "type": "Point", "coordinates": [ -154.369722, 56.5525 ] } },
{ "type": "Feature", "properties": { "name": "Ugak Bay", "maxKm": 10 }, "geometry": { "type": "Point", "coordinates": [ -152.845247, 57.485277 ] } },
{ "type": "Feature", "properties": { "name": "Uganik", "maxKm": 8 }, "geometry": { "type": "Point", "coordinates": [ -153.4, 57.766667 ] } },
{ "type": "Feature", "properties": { "name": "Uganik Bay", "maxKm": 10 }, "geometry": { "type": "Point", "coordinates": [ -153.545285, 57.872563 ] } },
{ "type": "Feature", "properties": { "name": "Uganik Lake", "maxKm": 8 }, "geometry": { "type": "Point", "coordinates": [ -153.332936, 57.659978 ] } },
{ "type": "Feature", "properties": { "name": "Uganik Passage", "maxKm": 10 }, "geometry": { "type": "Point", "coordinates": [ -153.294722, 57.810278 ] } },
{ "type": "Feature", "properties": { "name": "Upper Malina Lake", "maxKm": 8 }, "geometry": { "type": "Point", "coordinates": [ -153.087095, 58.156699 ] } },
{ "type": "Feature", "properties": { "name": "Harvester Island", "maxKm": 10 }, "geometry": { "type": "Point", "coordinates": [ -153.992688, 57.649942 ] } },
{ "type": "Feature", "properties": { "name": "Uyak Bay", "maxKm": 10 }, "geometry": { "type": "Point", "coordinates": [ -153.9, 57.525 ] } },
{ "type": "Feature", "properties": { "name": "Vera Bay", "maxKm": 10 }, "geometry": { "type": "Point", "coordinates": [ -152.240278, 57.786944 ] } },
{ "type": "Feature", "properties": { "name": "Viekoda Bay", "maxKm": 10 }, "geometry": { "type": "Point", "coordinates": [ -153.258056, 57.924722 ] } },
{ "type": "Feature", "properties": { "name": "Waskanareska Bay", "maxKm": 10 }, "geometry": { "type": "Point", "coordinates": [ -152.948333, 58.026944 ] } },
{ "type": "Feature", "properties": { "name": "Weasel Cove", "maxKm": 8 }, "geometry": { "type": "Point", "coordinates": [ -153.612374, 57.59775 ] } },
{ "type": "Feature", "properties": { "name": "Western Inlet", "maxKm": 10 }, "geometry": { "type": "Point", "coordinates": [ -152.609167, 58.588333 ] } },
{ "type": "Feature", "properties": { "name": "Whale Passage", "maxKm": 10 }, "geometry": { "type": "Point", "coordinates": [ -152.822129, 57.927259 ] } },
{ "type": "Feature", "properties": { "name": "Wide Bay", "maxKm": 10 }, "geometry": { "type": "Point", "coordinates": [ -156.37117, 57.362074 ] } },
{ "type": "Feature", "properties": { "name": "Womens Bay", "maxKm": 10 }, "geometry": { "type": "Point", "coordinates": [ -152.525007, 57.715175 ] } },
{ "type": "Feature", "properties": { "name": "Wonder Bay", "maxKm": 10 }, "geometry": { "type": "Point", "coordinates": [ -152.595556, 58.610833 ] } },
{ "type": "Feature", "properties": { "name": "Yelovoi (historical)", "maxKm": 8 }, "geometry": { "type": "Point", "coordinates": [ -152.4, 57.9 ] } },
{ "type": "Feature", "properties": { "name": "Yukuk Bay", "maxKm": 10 }, "geometry": { "type": "Point", "coordinates": [ -152.976389, 58.038889 ] } },
{ "type": "Feature", "properties": { "name": "Zachar Bay", "maxKm": 10 }, "geometry": { "type": "Point", "coordinates": [ -153.770833, 57.555833 ] } },
{ "type": "Feature", "properties": { "name": "Tugidak Island", "maxKm": 10 }, "geometry": { "type": "Point", "coordinates": [ -154.630948, 56.516658 ] } },
{ "type": "Feature", "properties": { "name": "Windy Lake", "maxKm": 10 }, "geometry": { "type": "Point", "coordinates": [ -153.396653, 57.320567 ] } },
{ "type": "Feature", "properties": { "name": "Ayakulik River", "maxKm": 10 }, "geometry": { "type": "Point", "coordinates": [ -154.409595966252482, 57.243517726168072 ] } },
{ "type": "Feature", "properties": { "name": "Marmot Island" }, "geometry": { "type": "Point", "coordinates": [ -151.8348, 58.219077 ] } },
{ "type": "Feature", "properties": { "name": "Saltery Lake", "maxKm": 5 }, "geometry": { "type": "Point", "coordinates": [ -152.764139, 57.53995 ] } },
{ "type": "Feature", "properties": { "name": "Outlet Cape", "maxKm": 10 }, "geometry": { "type": "Point", "coordinates": [ -153.293804251145957, 57.999157181622117 ] } },
{ "type": "Feature", "properties": { "name": "Cape Uganik", "maxKm": 8 }, "geometry": { "type": "Point", "coordinates": [ -153.507629437817656, 57.967255973738091 ] } },
{ "type": "Feature", "properties": { "name": "Miners Point", "maxKm": 5 }, "geometry": { "type": "Point", "coordinates": [ -153.721023665161226, 57.8966654061554 ] } },
{ "type": "Feature", "properties": { "name": "Cape Ugat", "maxKm": 8 }, "geometry": { "type": "Point", "coordinates": [ -153.853485951243755, 57.865966521161113 ] } },
{ "type": "Feature", "properties": { "name": "Twin Lakes", "maxKm": 5 }, "geometry": { "type": "Point", "coordinates": [ -153.019086764553066, 57.732634989594075 ] } },
{ "type": "Feature", "properties": { "name": "Barabara Lake", "maxKm": 5 }, "geometry": { "type": "Point", "coordinates": [ -152.953421699657468, 57.814743464554304 ] } }
]
}
