{"type":"FeatureCollection","features":[{"type":"Feature","properties":{"Name":"Kodiak (Base)"},"geometry":{"type":"Polygon","coordinates":[[[-152.4072,57.879932],[-152.374204,57.8782],[-152.342484,57.87307],[-152.313269,57.864741],[-152.287686,57.853536],[-152.26672,57.839886],[-152.251174,57.82432],[-152.241641,57.807437],[-152.23848,57.789888],[-152.241802,57.772347],[-152.251471,57.755489],[-152.267108,57.739959],[-152.288106,57.726352],[-152.313658,57.71519],[-152.342782,57.706897],[-152.374364,57.701792],[-152.4072,57.700068],[-152.440036,57.701792],[-152.471618,57.706897],[-152.500742,57.71519],[-152.526294,57.726352],[-152.547292,57.739959],[-152.562929,57.755489],[-152.572598,57.772347],[-152.57592,57.789888],[-152.572759,57.807437],[-152.563226,57.82432],[-152.54768,57.839886],[-152.526714,57.853536],[-152.501131,57.864741],[-152.471916,57.87307],[-152.440196,57.8782],[-152.4072,57.879932]]]}},{"type":"Feature","properties":{"id":9,"Name":"South End"},"geometry":{"type":"Polygon","coordinates":[[[-154.39636230468753,57.801602878972076],[-155.104777,57.543564],[-154.993121,56.294336],[-153.764901,56.371709],[-153.632309,56.798284],[-153.764901,57.064827],[-153.64929199218753,57.137000161990336],[-153.79005432128906,57.27556522344757],[-153.82598876953128,57.29437725023798],[-154.009149,57.449816],[-154.134763,57.513591],[-154.39636230468753,57.801602878972076]]]}},{"type":"Feature","properties":{"id":10,"Name":"West Side"},"geometry":{"type":"Polygon","coordinates":[[[-154.13818359375003,57.89879598703365],[-154.39636230468753,57.801602878972076],[-154.134763,57.513591],[-154.009149,57.449816],[-153.82598876953128,57.29437725023798],[-153.79005432128906,57.27556522344757],[-153.67630004882815,57.26121585586113],[-153.57421875000003,57.269382583624356],[-153.6618804931641,57.335670531212145],[-153.74450683593753,57.43287224510092],[-153.469762,57.5507405],[-153.313266,57.612049],[-153.11965942382815,57.6816336463927],[-153.04092407226565,57.78378304376226],[-152.939456,57.959128],[-153.268708,58.020802],[-153.434572,58.016869],[-153.79074096679688,58.163459142275535],[-153.93081665039065,58.03864263826433],[-154.13818359375003,57.89879598703365]]]}},{"type":"Feature","properties":{"id":11,"Name":"East Side"},"geometry":{"type":"Polygon","coordinates":[[[-153.061763,56.889244],[-151.95287,57.431452],[-152.16819763183597,57.466742886511334],[-152.34491949707032,57.515874240283885],[-152.73696899414065,57.60029648056777],[-152.86376953125003,57.567045587827195],[-152.9997253417969,57.53364629299394],[-152.99400329589844,57.496273829532534],[-153.04573059082034,57.48296863408621],[-153.05912017822268,57.45006087329716],[-153.20892333984375,57.363202075692044],[-153.26248168945312,57.298098847357814],[-153.33938598632812,57.27285670724333],[-153.45840454101565,57.220108418043125],[-153.55915110384115,57.19933387568823],[-153.64929199218753,57.137000161990336],[-153.764901,57.064827],[-153.632309,56.798284],[-153.061763,56.889244]]]}},{"type":"Feature","properties":{"id":12,"Name":"North End"},"geometry":{"type":"Polygon","coordinates":[[[-152.917407,57.677056],[-152.813344,57.65553],[-152.73696899414065,57.60029648056777],[-152.34491949707032,57.515874240283885],[-152.16819763183597,57.466742886511334],[-151.95287,57.431452],[-152.081194,57.825118],[-152.426891,58.003673],[-152.70929,57.997537],[-152.939456,57.959128],[-153.04092407226565,57.78378304376226],[-152.917407,57.677056]]]}},{"type":"Feature","properties":{"id":13,"Name":"Afognak"},"geometry":{"type":"Polygon","coordinates":[[[-152.677114,58.875631],[-153.79074096679688,58.163459142275535],[-153.434572,58.016869],[-153.268708,58.020802],[-152.939456,57.959128],[-152.70929,57.997537],[-152.426891,58.003673],[-151.650334,58.130343],[-151.446089,58.692877],[-152.677114,58.875631]]]}},{"type":"Feature","properties":{"id":14,"Name":"Kodiak Spine"},"geometry":{"type":"Polygon","coordinates":[[[-152.99400329589844,57.496273829532534],[-152.9997253417969,57.53364629299394],[-152.86376953125003,57.567045587827195],[-152.73696899414065,57.60029648056777],[-152.813344,57.65553],[-152.917407,57.677056],[-153.04092407226565,57.78378304376226],[-153.11965942382815,57.6816336463927],[-153.313266,57.612049],[-153.469762,57.5507405],[-153.74450683593753,57.43287224510092],[-153.6618804931641,57.335670531212145],[-153.57421875000003,57.269382583624356],[-153.67630004882815,57.26121585586113],[-153.79005432128906,57.27556522344757],[-153.64929199218753,57.137000161990336],[-153.55915110384115,57.19933387568823],[-153.45840454101565,57.220108418043125],[-153.33938598632812,57.27285670724333],[-153.26248168945312,57.298098847357814],[-153.20892333984375,57.363202075692044],[-153.05912017822268,57.45006087329716],[-153.04573059082034,57.48296863408621],[-152.99400329589844,57.496273829532534]]]}},{"type":"Feature","properties":{"id":15,"Name":"Kenai Peninsula"},"geometry":{"type":"Polygon","coordinates":[[[-150.267189,59.013702],[-147.234444,60.621956],[-150.491101,61.108951],[-151.418752,60.827849],[-151.589931,60.474461],[-152.471956,60.015498],[-152.677114,58.875631],[-151.446089,58.692877],[-150.267189,59.013702]]]}},{"type":"Feature","properties":{"id":16,"Name":"Katmai"},"geometry":{"type":"Polygon","coordinates":[[[-155.104777,57.543564],[-154.39636230468753,57.801602878972076],[-154.13818359375003,57.89879598703365],[-153.93081665039065,58.03864263826433],[-153.79074096679688,58.163459142275535],[-152.677114,58.875631],[-153.72070312500003,59.17029835064485],[-154.29199218750003,59.05185617891852],[-155.00610351562503,59.108308258604964],[-155.73120117187503,59.04620586244394],[-156.51123046875003,58.459228692360625],[-155.63232421875003,58.025555184126034],[-155.104777,57.543564]]]}},{"type":"Feature","properties":{"id":17,"Name":"Bristol Bay"},"geometry":{"type":"Polygon","coordinates":[[[-156.51123046875003,58.459228692360625],[-155.73120117187503,59.04620586244394],[-156.57714843750003,59.489726035537075],[-159.14794921875003,58.98965157496845],[-159.642333984375,58.44198345065033],[-157.79663085937503,57.32652122521709],[-157.51098632812503,57.46268068590949],[-157.17041015625003,58.06625598088457],[-156.51123046875003,58.459228692360625]]]}},{"type":"Feature","properties":{"id":18,"Name":"Alaska Peninsula"},"geometry":{"type":"Polygon","coordinates":[[[-154.993121,56.294336],[-155.104777,57.543564],[-155.63232421875003,58.025555184126034],[-156.51123046875003,58.459228692360625],[-157.17041015625003,58.06625598088457],[-157.51098632812503,57.46268068590949],[-157.79663085937503,57.32652122521709],[-158.48876953125003,57.74521321629189],[-163.48754882812503,55.24155203565252],[-163.31176757812503,54.52745749948722],[-159.19189453125003,54.71192884840614],[-154.993121,56.294336]]]}}]}